0 BREEZE-M DEB
1 34229U 06006AU  13279.18748575  .00011660  00000-0  65302-2 0  8787
2 34229 051.3663 122.9461 4831381 190.4889 332.7732 05.77784487109529
0 BREEZE-M DEB
1 34229U 06006AU  13285.84563475  .00013387  00000-0  76718-2 0  8793
2 34229 051.3389 117.3452 4829003 194.7256 143.9995 05.77960965109918
0 BREEZE-M DEB
1 34229U 06006AU  13292.06898767  .00018967  00000-0  11090-1 0  8802
2 34229 051.3919 112.0279 4825682 198.7252 136.1228 05.78233829110272
